CCSDS_OMM_VERS = 2.0
CREATION_DATE  = 
ORIGINATOR     = 

OBJECT_NAME    = SL-14 R/B
OBJECT_ID      = 1986-046B
CENTER_NAME    = EARTH
REF_FRAME      = TEME
TIME_SYSTEM    = UTC
MEAN_ELEMENT_THEORY = SGP/SGP4

EPOCH          = 2026-01-02T20:46:06.244320
MEAN_MOTION    = 14.85514066
ECCENTRICITY   = .00245378
INCLINATION    = 82.4827
RA_OF_ASC_NODE = 142.3634
ARG_OF_PERICENTER = 85.8696
MEAN_ANOMALY   = 274.5324

EPHEMERIS_TYPE = 0
CLASSIFICATION_TYPE = U
NORAD_CAT_ID   = 16792
ELEMENT_SET_NO = 999
REV_AT_EPOCH   = 11663
BSTAR          = .11814339E-3
MEAN_MOTION_DOT = .105E-4
MEAN_MOTION_DDOT = 0

CCSDS_OMM_VERS = 2.0
CREATION_DATE  = 
ORIGINATOR     = 

OBJECT_NAME    = SL-14 R/B
OBJECT_ID      = 1986-055B
CENTER_NAME    = EARTH
REF_FRAME      = TEME
TIME_SYSTEM    = UTC
MEAN_ELEMENT_THEORY = SGP/SGP4

EPOCH          = 2026-01-02T22:46:26.166144
MEAN_MOTION    = 14.85557552
ECCENTRICITY   = .00187045
INCLINATION    = 82.5198
RA_OF_ASC_NODE = 188.4428
ARG_OF_PERICENTER = 185.4524
MEAN_ANOMALY   = 335.3756

EPHEMERIS_TYPE = 0
CLASSIFICATION_TYPE = U
NORAD_CAT_ID   = 16882
ELEMENT_SET_NO = 999
REV_AT_EPOCH   = 10960
BSTAR          = .11758628E-3
MEAN_MOTION_DOT = .1043E-4
MEAN_MOTION_DDOT = 0

CCSDS_OMM_VERS = 2.0
CREATION_DATE  = 
ORIGINATOR     = 

OBJECT_NAME    = AJISAI (EGS)
OBJECT_ID      = 1986-061A
CENTER_NAME    = EARTH
REF_FRAME      = TEME
TIME_SYSTEM    = UTC
MEAN_ELEMENT_THEORY = SGP/SGP4

EPOCH          = 2026-01-02T22:55:34.866624
MEAN_MOTION    = 12.44514581
ECCENTRICITY   = .00113191
INCLINATION    = 50.0105
RA_OF_ASC_NODE = 295.4820
ARG_OF_PERICENTER = 119.1522
MEAN_ANOMALY   = 0.2528

EPHEMERIS_TYPE = 0
CLASSIFICATION_TYPE = U
NORAD_CAT_ID   = 16908
ELEMENT_SET_NO = 999
REV_AT_EPOCH   = 45981
BSTAR          = .13272882E-3
MEAN_MOTION_DOT = -.79E-6
MEAN_MOTION_DDOT = 0

CCSDS_OMM_VERS = 2.0
CREATION_DATE  = 
ORIGINATOR     = 

OBJECT_NAME    = COSMOS 1812
OBJECT_ID      = 1987-003A
CENTER_NAME    = EARTH
REF_FRAME      = TEME
TIME_SYSTEM    = UTC
MEAN_ELEMENT_THEORY = SGP/SGP4

EPOCH          = 2026-01-02T18:52:45.791040
MEAN_MOTION    = 15.80688673
ECCENTRICITY   = .00048088
INCLINATION    = 82.4863
RA_OF_ASC_NODE = 269.1570
ARG_OF_PERICENTER = 61.9631
MEAN_ANOMALY   = 298.2122

EPHEMERIS_TYPE = 0
CLASSIFICATION_TYPE = U
NORAD_CAT_ID   = 17295
ELEMENT_SET_NO = 999
REV_AT_EPOCH   = 13397
BSTAR          = .91759628E-3
MEAN_MOTION_DOT = .178398E-2
MEAN_MOTION_DDOT = 0

CCSDS_OMM_VERS = 2.0
CREATION_DATE  = 
ORIGINATOR     = 

OBJECT_NAME    = SL-14 R/B
OBJECT_ID      = 1987-024B
CENTER_NAME    = EARTH
REF_FRAME      = TEME
TIME_SYSTEM    = UTC
MEAN_ELEMENT_THEORY = SGP/SGP4

EPOCH          = 2026-01-02T22:08:36.858912
MEAN_MOTION    = 14.86053310
ECCENTRICITY   = .0019477
INCLINATION    = 82.5286
RA_OF_ASC_NODE = 154.5551
ARG_OF_PERICENTER = 116.6119
MEAN_ANOMALY   = 243.7096

EPHEMERIS_TYPE = 0
CLASSIFICATION_TYPE = U
NORAD_CAT_ID   = 17567
ELEMENT_SET_NO = 999
REV_AT_EPOCH   = 7836
BSTAR          = .11901629E-3
MEAN_MOTION_DOT = .1069E-4
MEAN_MOTION_DDOT = 0

CCSDS_OMM_VERS = 2.0
CREATION_DATE  = 
ORIGINATOR     = 

OBJECT_NAME    = COSMOS 1833
OBJECT_ID      = 1987-027A
CENTER_NAME    = EARTH
REF_FRAME      = TEME
TIME_SYSTEM    = UTC
MEAN_ELEMENT_THEORY = SGP/SGP4

EPOCH          = 2026-01-02T17:49:26.475456
MEAN_MOTION    = 14.13034621
ECCENTRICITY   = .00235225
INCLINATION    = 70.9181
RA_OF_ASC_NODE = 104.6279
ARG_OF_PERICENTER = 302.5285
MEAN_ANOMALY   = 57.3563

EPHEMERIS_TYPE = 0
CLASSIFICATION_TYPE = U
NORAD_CAT_ID   = 17589
ELEMENT_SET_NO = 999
REV_AT_EPOCH   = 100
BSTAR          = .21210764E-3
MEAN_MOTION_DOT = .349E-5
MEAN_MOTION_DDOT = 0

CCSDS_OMM_VERS = 2.0
CREATION_DATE  = 
ORIGINATOR     = 

OBJECT_NAME    = SL-16 R/B
OBJECT_ID      = 1987-027B
CENTER_NAME    = EARTH
REF_FRAME      = TEME
TIME_SYSTEM    = UTC
MEAN_ELEMENT_THEORY = SGP/SGP4

EPOCH          = 2026-01-02T20:04:58.857312
MEAN_MOTION    = 14.17156226
ECCENTRICITY   = .0006982
INCLINATION    = 71.0030
RA_OF_ASC_NODE = 55.2632
ARG_OF_PERICENTER = 237.7096
MEAN_ANOMALY   = 122.3352

EPHEMERIS_TYPE = 0
CLASSIFICATION_TYPE = U
NORAD_CAT_ID   = 17590
ELEMENT_SET_NO = 999
REV_AT_EPOCH   = 601
BSTAR          = .4906116E-4
MEAN_MOTION_DOT = .51E-6
MEAN_MOTION_DDOT = 0

CCSDS_OMM_VERS = 2.0
CREATION_DATE  = 
ORIGINATOR     = 

OBJECT_NAME    = SL-14 R/B
OBJECT_ID      = 1987-038B
CENTER_NAME    = EARTH
REF_FRAME      = TEME
TIME_SYSTEM    = UTC
MEAN_ELEMENT_THEORY = SGP/SGP4

EPOCH          = 2026-01-02T22:49:37.180992
MEAN_MOTION    = 14.85287242
ECCENTRICITY   = .00199922
INCLINATION    = 82.5012
RA_OF_ASC_NODE = 358.7197
ARG_OF_PERICENTER = 26.3118
MEAN_ANOMALY   = 333.9109

EPHEMERIS_TYPE = 0
CLASSIFICATION_TYPE = U
NORAD_CAT_ID   = 17912
ELEMENT_SET_NO = 999
REV_AT_EPOCH   = 6947
BSTAR          = .10996726E-3
MEAN_MOTION_DOT = .971E-5
MEAN_MOTION_DDOT = 0

CCSDS_OMM_VERS = 2.0
CREATION_DATE  = 
ORIGINATOR     = 

OBJECT_NAME    = COSMOS 1844
OBJECT_ID      = 1987-041A
CENTER_NAME    = EARTH
REF_FRAME      = TEME
TIME_SYSTEM    = UTC
MEAN_ELEMENT_THEORY = SGP/SGP4

EPOCH          = 2026-01-02T22:02:08.244672
MEAN_MOTION    = 14.14538257
ECCENTRICITY   = .00289054
INCLINATION    = 70.8987
RA_OF_ASC_NODE = 172.9021
ARG_OF_PERICENTER = 123.6514
MEAN_ANOMALY   = 236.7371

EPHEMERIS_TYPE = 0
CLASSIFICATION_TYPE = U
NORAD_CAT_ID   = 17973
ELEMENT_SET_NO = 999
REV_AT_EPOCH   = 99428
BSTAR          = .14471264E-3
MEAN_MOTION_DOT = .231E-5
MEAN_MOTION_DDOT = 0

CCSDS_OMM_VERS = 2.0
CREATION_DATE  = 
ORIGINATOR     = 

OBJECT_NAME    = SL-14 R/B
OBJECT_ID      = 1987-055B
CENTER_NAME    = EARTH
REF_FRAME      = TEME
TIME_SYSTEM    = UTC
MEAN_ELEMENT_THEORY = SGP/SGP4

EPOCH          = 2026-01-02T20:55:36.316704
MEAN_MOTION    = 14.85547027
ECCENTRICITY   = .00195374
INCLINATION    = 82.4984
RA_OF_ASC_NODE = 51.0707
ARG_OF_PERICENTER = 228.5293
MEAN_ANOMALY   = 131.4246

EPHEMERIS_TYPE = 0
CLASSIFICATION_TYPE = U
NORAD_CAT_ID   = 18153
ELEMENT_SET_NO = 999
REV_AT_EPOCH   = 6016
BSTAR          = .99082508E-4
MEAN_MOTION_DOT = .883E-5
MEAN_MOTION_DDOT = 0

CCSDS_OMM_VERS = 2.0
CREATION_DATE  = 
ORIGINATOR     = 

OBJECT_NAME    = COSMOS 1867
OBJECT_ID      = 1987-060A
CENTER_NAME    = EARTH
REF_FRAME      = TEME
TIME_SYSTEM    = UTC
MEAN_ELEMENT_THEORY = SGP/SGP4

EPOCH          = 2026-01-02T16:49:50.203200
MEAN_MOTION    = 14.31490617
ECCENTRICITY   = .00138614
INCLINATION    = 65.0102
RA_OF_ASC_NODE = 131.5017
ARG_OF_PERICENTER = 273.3279
MEAN_ANOMALY   = 86.6219

EPHEMERIS_TYPE = 0
CLASSIFICATION_TYPE = U
NORAD_CAT_ID   = 18187
ELEMENT_SET_NO = 999
REV_AT_EPOCH   = 1049
BSTAR          = .65197626E-4
MEAN_MOTION_DOT = .73E-6
MEAN_MOTION_DDOT = 0

CCSDS_OMM_VERS = 2.0
CREATION_DATE  = 
ORIGINATOR     = 

OBJECT_NAME    = SL-14 R/B
OBJECT_ID      = 1988-001B
CENTER_NAME    = EARTH
REF_FRAME      = TEME
TIME_SYSTEM    = UTC
MEAN_ELEMENT_THEORY = SGP/SGP4

EPOCH          = 2026-01-02T17:28:39.003744
MEAN_MOTION    = 14.85449938
ECCENTRICITY   = .00196022
INCLINATION    = 82.5128
RA_OF_ASC_NODE = 257.4078
ARG_OF_PERICENTER = 95.9477
MEAN_ANOMALY   = 264.3974

EPHEMERIS_TYPE = 0
CLASSIFICATION_TYPE = U
NORAD_CAT_ID   = 18749
ELEMENT_SET_NO = 999
REV_AT_EPOCH   = 3223
BSTAR          = .10172085E-3
MEAN_MOTION_DOT = .904E-5
MEAN_MOTION_DDOT = 0

