SL-14 R/B               
1 16792U 86046B   26002.86535005  .00001050  00000+0  11814-3 0  9994
2 16792  82.4827 142.3634 0024537  85.8696 274.5324 14.85514066116638
SL-14 R/B               
1 16882U 86055B   26002.94891396  .00001043  00000+0  11759-3 0  9991
2 16882  82.5198 188.4428 0018704 185.4524 335.3756 14.85557552109609
AJISAI (EGS)            
1 16908U 86061A   26002.95526466 -.00000079  00000+0  13273-3 0  9993
2 16908  50.0105 295.4820 0011319 119.1522   0.2528 12.44514581459812
COSMOS 1812             
1 17295U 87003A   26002.78664110  .00178398  00000+0  91760-3 0  9996
2 17295  82.4863 269.1570 0004808  61.9631 298.2122 15.80688673133974
SL-14 R/B               
1 17567U 87024B   26002.92264883  .00001069  00000+0  11902-3 0  9990
2 17567  82.5286 154.5551 0019477 116.6119 243.7096 14.86053310 78364
COSMOS 1833             
1 17589U 87027A   26002.74266754  .00000349  00000+0  21211-3 0  9990
2 17589  70.9181 104.6279 0023522 302.5285  57.3563 14.13034621  1001
SL-16 R/B               
1 17590U 87027B   26002.83679233  .00000051  00000+0  49061-4 0  9996
2 17590  71.0030  55.2632 0006982 237.7096 122.3352 14.17156226  6017
SL-14 R/B               
1 17912U 87038B   26002.95112478  .00000971  00000+0  10997-3 0  9998
2 17912  82.5012 358.7197 0019992  26.3118 333.9109 14.85287242 69478
COSMOS 1844             
1 17973U 87041A   26002.91815098  .00000231  00000+0  14471-3 0  9993
2 17973  70.8987 172.9021 0028905 123.6514 236.7371 14.14538257994287
SL-14 R/B               
1 18153U 87055B   26002.87194811  .00000883  00000+0  99083-4 0  9993
2 18153  82.4984  51.0707 0019537 228.5293 131.4246 14.85547027 60168
COSMOS 1867             
1 18187U 87060A   26002.70127550  .00000073  00000+0  65198-4 0  9995
2 18187  65.0102 131.5017 0013861 273.3279  86.6219 14.31490617 10493
SL-14 R/B               
1 18749U 88001B   26002.72822921  .00000904  00000+0  10172-3 0  9995
2 18749  82.5128 257.4078 0019602  95.9477 264.3974 14.85449938 32239
